[
    {
        "Altitude(m)": 610399.552638519,
        "Argument of Periapsis(deg)": 0.0,
        "Eccentricity": 0.0,
        "Inclination(deg)": 60.0,
        "Latitude(deg)": 52.11140060411819,
        "Longitude(deg)": 27.58416600846214,
        "Mean Anomaly(deg)": 65.4545,
        "RAAN(deg)": 80.0,
        "Satellite Name": "Test1 356",
        "Satellite Number": 356,
        "Semi-Major Axis(m)": 6980739.136638005,
        "Time(s)": 0
    },
    {
        "Altitude(m)": 610481.7041843508,
        "Argument of Periapsis(deg)": 0.00010418945913296404,
        "Eccentricity": 0.0,
        "Inclination(deg)": 60.0,
        "Latitude(deg)": 52.47100433876485,
        "Longitude(deg)": 28.36630157775176,
        "Mean Anomaly(deg)": 66.07460614546183,
        "RAAN(deg)": 79.99957995086025,
        "Satellite Name": "Test1 356",
        "Satellite Number": 356,
        "Semi-Major Axis(m)": 6980739.136638005,
        "Time(s)": 10
    }
]